OSCAR 7 (AO-7)          
1 07530U 74089B   26177.95096363 -.00000030  00000+0  10246-3 0  9996
2 07530 101.9899 191.2993 0012643 112.0577 277.1703 12.53698219361741
PHASE 3B (AO-10)        
1 14129U 83058B   26174.68191131 -.00000085  00000+0  00000+0 0  9993
2 14129  25.9176 218.4895 6008564 117.4551 314.9460  2.05872578295624
UOSAT 2 (UO-11)         
1 14781U 84021B   26177.88662513  .00001206  00000+0  12818-3 0  9999
2 14781  97.8061 143.3531 0008474 142.5122 217.6689 14.90806409258571
LUSAT (LO-19)           
1 20442U 90005G   26177.87980858  .00000117  00000+0  58509-4 0  9991
2 20442  98.8847 199.9524 0011684 172.3680 187.7684 14.34125883903781
EYESAT A (AO-27)        
1 22825U 93061C   26177.92905401  .00000087  00000+0  49902-4 0  9993
2 22825  98.6877 245.3390 0009485  74.6935 285.5295 14.30944638708397
ITAMSAT (IO-26)         
1 22826U 93061D   26177.90555967  .00000084  00000+0  48439-4 0  9991
2 22826  98.6824 245.2339 0009870  59.7105 300.5053 14.31371793708705
RADIO ROSTO (RS15)      
1 23439U 94085A   26177.87178083 -.00000053  00000+0 -28451-3 0  9994
2 23439  64.8184 287.5538 0156272   2.0858 358.0686 11.27583421296993
JAS-2 (FO-29)           
1 24278U 96046B   26177.47891755 -.00000015  00000+0  18217-4 0  9996
2 24278  98.5232  25.0778 0350900  72.3924 291.5216 13.53274769474421
TECHSAT 1B (GO-32)      
1 25397U 98043D   26177.96864711  .00000060  00000+0  46233-4 0  9992
2 25397  99.0071 170.9741 0001544 144.7408 215.3873 14.24430194452726
ISS (ZARYA)             
1 25544U 98067A   26177.67101756  .00008101  00000+0  15268-3 0  9990
2 25544  51.6322 253.1475 0004299 235.1263 124.9322 15.49442433573225
PCSAT (NO-44)           
1 26931U 01043C   26177.86781345  .00000089  00000+0  64008-4 0  9992
2 26931  67.0492 219.2335 0006038 265.2103  94.8309 14.31959036291839
SAUDISAT 1C (SO-50)     
1 27607U 02058C   26177.93292419  .00000920  00000+0  12578-3 0  9995
2 27607  64.5520  98.8324 0075044 260.6581  98.6035 14.83066213265905
CUTE-1 (CO-55)          
1 27844U 03031E   26177.94213012  .00000288  00000+0  14336-3 0  9994
2 27844  98.6737 186.3784 0010126 150.6275 209.5475 14.24341351193069
CUBESAT XI-IV (CO-57)   
1 27848U 03031J   26177.93548419  .00000243  00000+0  12580-3 0  9999
2 27848  98.6768 186.0767 0009653 168.4758 191.6643 14.23625736192766
MOZHAETS 4 (RS22)       
1 27939U 03042A   26178.00969002  .00001221  00000+0  19615-3 0  9999
2 27939  98.3472   2.6464 0010037 234.5503 286.8726 14.73484597216998
CUBESAT XI-V            
1 28895U 05043F   26177.91503074  .00001438  00000+0  23373-3 0  9992
2 28895  98.2993 333.7414 0014316 169.8184 190.3315 14.72656457103183
CUTE-1.7+APD II (CO-65) 
1 32785U 08021C   26177.92694806  .00004953  00000+0  31261-3 0  9999
2 32785  97.8272 159.5484 0008764   8.9415 351.1968 15.09541243986662
SEEDS II (CO-66)        
1 32791U 08021J   26177.92722942  .00019616  00000+0  61568-3 0  9994
2 32791  97.7516 176.2919 0000555 212.5247 147.5960 15.33073710988784
YUBILEINY (RS30)        
1 32953U 08025A   26177.91678512  .00000029  00000+0  13811-3 0  9996
2 32953  82.5046 349.3870 0018560 291.4777  68.4323 12.43179959820905
KKS-1 (KISEKI)          
1 33499U 09002H   26177.90419505  .00001307  00000+0  16712-3 0  9995
2 33499  98.1187 100.5005 0006392 257.3413 102.7086 14.83147056937631
SWISSCUBE               
1 35932U 09051B   26177.47338387  .00000909  00000+0  18915-3 0  9997
2 35932  98.4029  85.5233 0006640 172.3713 187.7590 14.62497638890512
BEESAT-1                
1 35933U 09051C   26177.69301354  .00000752  00000+0  16076-3 0  9998
2 35933  98.3957  85.3622 0004848 183.3217 176.7952 14.61734342890572
ITUPSAT1                
1 35935U 09051E   26177.69222981  .00000700  00000+0  15443-3 0  9998
2 35935  98.4042  84.5432 0006750 199.9772 160.1164 14.60453570890126
XIWANG-1 (HOPE-1)       
1 36122U 09072B   26177.89576884 -.00000022  00000+0  58148-4 0  9994
2 36122 100.4023 131.5728 0007074 207.5591 152.5147 13.16440201794287
O/OREOS (USA 219)       
1 37224U 10062C   26177.77269745  .00002174  00000+0  21059-3 0  9990
2 37224  71.9714  58.6264 0012916  42.6742 317.5429 14.93781898118070
JUGNU                   
1 37839U 11058B   26177.91378178  .00000404  00000+0  71065-4 0  9992
2 37839  19.9597 249.3371 0018444 183.2856 332.8974 14.13779071760408
SRMSAT                  
1 37841U 11058D   26177.82964589  .00000372  00000+0  58081-4 0  9999
2 37841  19.9735   1.1063 0011719 310.3748  86.5215 14.11577452759189
STRAND-1                
1 39090U 13009E   26177.94228705  .00000286  00000+0  11041-3 0  9999
2 39090  98.3924 357.9366 0008273 193.8738 166.2222 14.37168802698460
ZACUBE-1 (TSHEPISOSAT)  
1 39417U 13066B   26177.93888484  .00003397  00000+0  26450-3 0  9996
2 39417  97.8047 140.3257 0042157 214.4867 145.3620 15.01239608682196
GOMX-1                  
1 39430U 13066Q   26177.92317303  .00001969  00000+0  29942-3 0  9999
2 39430  97.6486  17.7715 0129847  46.6410 314.5528 14.69492351671344
