OBJECT_NAME,OBJECT_ID,EPOCH,MEAN_MOTION,ECCENTRICITY,INCLINATION,RA_OF_ASC_NODE,ARG_OF_PERICENTER,MEAN_ANOMALY,EPHEMERIS_TYPE,CLASSIFICATION_TYPE,NORAD_CAT_ID,ELEMENT_SET_NO,REV_AT_EPOCH,BSTAR,MEAN_MOTION_DOT,MEAN_MOTION_DDOT
OSCAR 7 (AO-7),1974-089B,2026-06-26T22:49:23.257632,12.53698219,.00126437,101.9899,191.2993,112.0577,277.1703,0,U,7530,999,36174,.10246494E-3,-.3E-6,0
PHASE 3B (AO-10),1983-058B,2026-06-23T16:21:57.137184,2.05872578,.60085647,25.9176,218.4895,117.4551,314.9460,0,U,14129,999,29562,0,-.85E-6,0
UOSAT 2 (UO-11),1984-021B,2026-06-26T21:16:44.411232,14.90806409,.00084748,97.8061,143.3531,142.5122,217.6689,0,U,14781,999,25857,.12817985E-3,.1206E-4,0
LUSAT (LO-19),1990-005G,2026-06-26T21:06:55.461312,14.34125883,.00116842,98.8847,199.9524,172.3680,187.7684,0,U,20442,999,90378,.585086E-4,.117E-5,0
EYESAT A (AO-27),1993-061C,2026-06-26T22:17:50.266464,14.30944638,.00094857,98.6877,245.3390,74.6935,285.5295,0,U,22825,999,70839,.49902461E-4,.87E-6,0
ITAMSAT (IO-26),1993-061D,2026-06-26T21:44:00.355488,14.31371793,.00098705,98.6824,245.2339,59.7105,300.5053,0,U,22826,999,70870,.48439323E-4,.84E-6,0
RADIO ROSTO (RS15),1994-085A,2026-06-26T20:55:21.863712,11.27583421,.0156272,64.8184,287.5538,2.0858,358.0686,0,U,23439,999,29699,-.28451256E-3,-.53E-6,0
JAS-2 (FO-29),1996-046B,2026-06-26T11:29:38.476320,13.53274769,.03509,98.5232,25.0778,72.3924,291.5216,0,U,24278,999,47442,.18217E-4,-.15E-6,0
TECHSAT 1B (GO-32),1998-043D,2026-06-26T23:14:51.110304,14.24430194,.00015449,99.0071,170.9741,144.7408,215.3873,0,U,25397,999,45272,.46233462E-4,.6E-6,0
ISS (ZARYA),1998-067A,2026-06-26T16:06:15.917184,15.49442433,.00042994,51.6322,253.1475,235.1263,124.9322,0,U,25544,999,57322,.15268082E-3,.8101E-4,0
PCSAT (NO-44),2001-043C,2026-06-26T20:49:39.082080,14.31959036,.00060388,67.0492,219.2335,265.2103,94.8309,0,U,26931,999,29183,.64007753E-4,.89E-6,0
SAUDISAT 1C (SO-50),2002-058C,2026-06-26T22:23:24.650016,14.83066213,.00750442,64.5520,98.8324,260.6581,98.6035,0,U,27607,999,26590,.12577976E-3,.92E-5,0
CUTE-1 (CO-55),2003-031E,2026-06-26T22:36:40.042368,14.24341351,.00101264,98.6737,186.3784,150.6275,209.5475,0,U,27844,999,19306,.14335796E-3,.288E-5,0
CUBESAT XI-IV (CO-57),2003-031J,2026-06-26T22:27:05.834016,14.23625736,.00096532,98.6768,186.0767,168.4758,191.6643,0,U,27848,999,19276,.12579737E-3,.243E-5,0
MOZHAETS 4 (RS22),2003-042A,2026-06-27T00:13:57.217728,14.73484597,.00100375,98.3472,2.6464,234.5503,286.8726,0,U,27939,999,21699,.1961459E-3,.1221E-4,0
CUBESAT XI-V,2005-043F,2026-06-26T21:57:38.655936,14.72656457,.00143161,98.2993,333.7414,169.8184,190.3315,0,U,28895,999,10318,.2337335E-3,.1438E-4,0
CUTE-1.7+APD II (CO-65),2008-021C,2026-06-26T22:14:48.312384,15.09541243,.00087647,97.8272,159.5484,8.9415,351.1968,0,U,32785,999,98666,.31261277E-3,.4953E-4,0
SEEDS II (CO-66),2008-021J,2026-06-26T22:15:12.621888,15.33073710,.00005557,97.7516,176.2919,212.5247,147.5960,0,U,32791,999,98878,.61567793E-3,.19616E-3,0
YUBILEINY (RS30),2008-025A,2026-06-26T22:00:10.234368,12.43179959,.00185606,82.5046,349.3870,291.4777,68.4323,0,U,32953,999,82090,.13811227E-3,.29E-6,0
KKS-1 (KISEKI),2009-002H,2026-06-26T21:42:02.452320,14.83147056,.00063927,98.1187,100.5005,257.3413,102.7086,0,U,33499,999,93763,.16711793E-3,.1307E-4,0
SWISSCUBE,2009-051B,2026-06-26T11:21:40.366368,14.62497638,.000664,98.4029,85.5233,172.3713,187.7590,0,U,35932,999,89051,.18915E-3,.909E-5,0
BEESAT-1,2009-051C,2026-06-26T16:37:56.369856,14.61734342,.00048484,98.3957,85.3622,183.3217,176.7952,0,U,35933,999,89057,.16075564E-3,.752E-5,0
ITUPSAT1,2009-051E,2026-06-26T16:36:48.655584,14.60453570,.00067507,98.4042,84.5432,199.9772,160.1164,0,U,35935,999,89012,.15443273E-3,.7E-5,0
XIWANG-1 (HOPE-1),2009-072B,2026-06-26T21:29:54.427776,13.16440201,.00070747,100.4023,131.5728,207.5591,152.5147,0,U,36122,999,79428,.58147782E-4,-.22E-6,0
O/OREOS (USA 219),2010-062C,2026-06-26T18:32:41.059680,14.93781898,.00129163,71.9714,58.6264,42.6742,317.5429,0,U,37224,999,11807,.21059314E-3,.2174E-4,0
JUGNU,2011-058B,2026-06-26T21:55:50.745792,14.13779071,.00184444,19.9597,249.3371,183.2856,332.8974,0,U,37839,999,76040,.71064776E-4,.404E-5,0
SRMSAT,2011-058D,2026-06-26T19:54:41.404896,14.11577452,.00117193,19.9735,1.1063,310.3748,86.5215,0,U,37841,999,75918,.58080683E-4,.372E-5,0
STRAND-1,2013-009E,2026-06-26T22:36:53.601120,14.37168802,.0008273,98.3924,357.9366,193.8738,166.2222,0,U,39090,999,69846,.11040922E-3,.286E-5,0
ZACUBE-1 (TSHEPISOSAT),2013-066B,2026-06-26T22:31:59.650176,15.01239608,.00421576,97.8047,140.3257,214.4867,145.3620,0,U,39417,999,68219,.26450082E-3,.3397E-4,0
GOMX-1,2013-066Q,2026-06-26T22:09:22.149792,14.69492351,.01298479,97.6486,17.7715,46.6410,314.5528,0,U,39430,999,67134,.29941545E-3,.1969E-4,0
